start=new Date('2022-07-16T00:00:00.000Z').valueOf();
sats=[{"RA_OF_ASC_NODE":"290.8936","OBJECT_NAME":"STARLINK-2742","GP_ID":"208202283","ECCENTRICITY":"0.00013590","CENTER_NAME":"EARTH","APOAPSIS":"548.185","COUNTRY_CODE":"US","MEAN_ELEMENT_THEORY":"SGP4","NORAD_CAT_ID":"48688","BSTAR":"0.00000838170000","MEAN_MOTION":"15.06390101","REF_FRAME":"TEME","CLASSIFICATION_TYPE":"U","MEAN_ANOMALY":"268.1383","EPHEMERIS_TYPE":"0","TLE_LINE1":"1 48688U 21044BC  22196.64446587 -.00000157  00000-0  83817-5 0  9995","TLE_LINE2":"2 48688  53.0561 290.8936 0001359  91.9762 268.1383 15.06390101 63551","RCS_SIZE":"LARGE","ELEMENT_SET_NO":"999","ARG_OF_PERICENTER":"91.9762","SITE":"AFETR","PERIOD":"95.593","MEAN_MOTION_DDOT":"0.0000000000000","TIME_SYSTEM":"UTC","MEAN_MOTION_DOT":"-0.00000157","OBJECT_ID":"2021-044BC","REV_AT_EPOCH":"6355","LAUNCH_DATE":"2021-05-26","SEMIMAJOR_AXIS":"6925.379","EPOCH":"2022-07-15T15:28:01.851168","DECAY_DATE":null,"PERIAPSIS":"546.303","OBJECT_TYPE":"PAYLOAD","FILE":"3514839","INCLINATION":"53.0561"},{"TIME_SYSTEM":"UTC","MEAN_MOTION_DDOT":"0.0000000000000","OBJECT_ID":"2021-044BD","MEAN_MOTION_DOT":"0.00000057","LAUNCH_DATE":"2021-05-26","REV_AT_EPOCH":"6348","SITE":"AFETR","ARG_OF_PERICENTER":"73.6352","ELEMENT_SET_NO":"999","PERIOD":"95.593","DECAY_DATE":null,"OBJECT_TYPE":"PAYLOAD","PERIAPSIS":"546.296","FILE":"3514839","INCLINATION":"53.0552","EPOCH":"2022-07-15T15:35:19.684896","SEMIMAJOR_AXIS":"6925.379","NORAD_CAT_ID":"48689","BSTAR":"0.00002273200000","RA_OF_ASC_NODE":"295.8491","OBJECT_NAME":"STARLINK-2617","GP_ID":"208202534","CENTER_NAME":"EARTH","ECCENTRICITY":"0.00013680","MEAN_ELEMENT_THEORY":"SGP4","COUNTRY_CODE":"US","APOAPSIS":"548.191","TLE_LINE2":"2 48689  53.0552 295.8491 0001368  73.6352 286.4788 15.06390150 63483","RCS_SIZE":"LARGE","REF_FRAME":"TEME","MEAN_MOTION":"15.06390150","CLASSIFICATION_TYPE":"U","MEAN_ANOMALY":"286.4788","EPHEMERIS_TYPE":"0","TLE_LINE1":"1 48689U 21044BD  22196.64953339  .00000057  00000-0  22732-4 0  9990"},{"SEMIMAJOR_AXIS":"6925.367","EPOCH":"2022-07-15T18:55:40.655136","INCLINATION":"53.0552","FILE":"3514839","DECAY_DATE":null,"PERIAPSIS":"546.362","OBJECT_TYPE":"PAYLOAD","ARG_OF_PERICENTER":"94.9335","ELEMENT_SET_NO":"999","SITE":"AFETR","PERIOD":"95.593","REV_AT_EPOCH":"6336","LAUNCH_DATE":"2021-05-26","MEAN_MOTION_DDOT":"0.0000000000000","TIME_SYSTEM":"UTC","MEAN_MOTION_DOT":"0.00000516","OBJECT_ID":"2021-044BE","MEAN_ANOMALY":"265.1798","TLE_LINE1":"1 48690U 21044BE  22196.78866499  .00000516  00000-0  53546-4 0  9994","EPHEMERIS_TYPE":"0","MEAN_MOTION":"15.06393962","REF_FRAME":"TEME","CLASSIFICATION_TYPE":"U","TLE_LINE2":"2 48690  53.0552 305.2546 0001257  94.9335 265.1798 15.06393962 63362","RCS_SIZE":"LARGE","ECCENTRICITY":"0.00012570","CENTER_NAME":"EARTH","APOAPSIS":"548.103","COUNTRY_CODE":"US","MEAN_ELEMENT_THEORY":"SGP4","RA_OF_ASC_NODE":"305.2546","OBJECT_NAME":"STARLINK-2740","GP_ID":"208202785","NORAD_CAT_ID":"48690","BSTAR":"0.00005354600000"},{"TLE_LINE2":"2 48691  53.0545 301.2698 0001339  79.3271 280.7869 15.06405180 63409","RCS_SIZE":"LARGE","REF_FRAME":"TEME","MEAN_MOTION":"15.06405180","CLASSIFICATION_TYPE":"U","MEAN_ANOMALY":"280.7869","TLE_LINE1":"1 48691U 21044BF  22196.56244330  .00003336  00000-0  24272-3 0  9991","EPHEMERIS_TYPE":"0","NORAD_CAT_ID":"48691","BSTAR":"0.00024272000000","RA_OF_ASC_NODE":"301.2698","OBJECT_NAME":"STARLINK-2750","GP_ID":"208171483","CENTER_NAME":"EARTH","ECCENTRICITY":"0.00013390","MEAN_ELEMENT_THEORY":"SGP4","COUNTRY_CODE":"US","APOAPSIS":"548.125","DECAY_DATE":null,"OBJECT_TYPE":"PAYLOAD","PERIAPSIS":"546.270","INCLINATION":"53.0545","FILE":"3514546","EPOCH":"2022-07-15T13:29:55.101120","SEMIMAJOR_AXIS":"6925.333","TIME_SYSTEM":"UTC","MEAN_MOTION_DDOT":"0.0000000000000","OBJECT_ID":"2021-044BF","MEAN_MOTION_DOT":"0.00003336","LAUNCH_DATE":"2021-05-26","REV_AT_EPOCH":"6340","SITE":"AFETR","ELEMENT_SET_NO":"999","ARG_OF_PERICENTER":"79.3271","PERIOD":"95.592"},{"ARG_OF_PERICENTER":"92.8866","ELEMENT_SET_NO":"999","SITE":"AFETR","PERIOD":"95.592","MEAN_MOTION_DDOT":"0.0000000000000","TIME_SYSTEM":"UTC","MEAN_MOTION_DOT":"0.00001147","OBJECT_ID":"2021-044BG","REV_AT_EPOCH":"6344","LAUNCH_DATE":"2021-05-26","SEMIMAJOR_AXIS":"6925.365","EPOCH":"2022-07-15T19:30:51.898752","DECAY_DATE":null,"OBJECT_TYPE":"PAYLOAD","PERIAPSIS":"546.269","FILE":"3514839","INCLINATION":"53.0549","RA_OF_ASC_NODE":"300.2623","OBJECT_NAME":"STARLINK-2752","GP_ID":"208201783","CENTER_NAME":"EARTH","ECCENTRICITY":"0.00013880","APOAPSIS":"548.192","MEAN_ELEMENT_THEORY":"SGP4","COUNTRY_CODE":"US","NORAD_CAT_ID":"48692","BSTAR":"0.00009589300000","MEAN_MOTION":"15.06394518","REF_FRAME":"TEME","CLASSIFICATION_TYPE":"U","MEAN_ANOMALY":"267.2282","TLE_LINE1":"1 48692U 21044BG  22196.81310068  .00001147  00000-0  95893-4 0  9998","EPHEMERIS_TYPE":"0","TLE_LINE2":"2 48692  53.0549 300.2623 0001388  92.8866 267.2282 15.06394518 63440","RCS_SIZE":"LARGE"},{"CLASSIFICATION_TYPE":"U","REF_FRAME":"TEME","MEAN_MOTION":"15.06386845","EPHEMERIS_TYPE":"0","TLE_LINE1":"1 48693U 21044BH  22196.82091670  .00007277  00000-0  50707-3 0  9999","MEAN_ANOMALY":"283.6987","RCS_SIZE":"LARGE","TLE_LINE2":"2 48693  53.0536 305.1028 0001222  76.4138 283.6987 15.06386845 63377","OBJECT_NAME":"STARLINK-2618","GP_ID":"208203035","RA_OF_ASC_NODE":"305.1028","MEAN_ELEMENT_THEORY":"SGP4","COUNTRY_CODE":"US","APOAPSIS":"548.100","ECCENTRICITY":"0.00012220","CENTER_NAME":"EARTH","BSTAR":"0.00050707000000","NORAD_CAT_ID":"48693","EPOCH":"2022-07-15T19:42:07.202880","SEMIMAJOR_AXIS":"6925.389","OBJECT_TYPE":"PAYLOAD","PERIAPSIS":"546.408","DECAY_DATE":null,"INCLINATION":"53.0536","FILE":"3514839","PERIOD":"95.593","SITE":"AFETR","ELEMENT_SET_NO":"999","ARG_OF_PERICENTER":"76.4138","OBJECT_ID":"2021-044BH","MEAN_MOTION_DOT":"0.00007277","TIME_SYSTEM":"UTC","MEAN_MOTION_DDOT":"0.0000000000000","LAUNCH_DATE":"2021-05-26","REV_AT_EPOCH":"6337"},{"EPOCH":"2022-07-15T14:09:42.618240","SEMIMAJOR_AXIS":"6925.366","INCLINATION":"53.0556","FILE":"3514546","DECAY_DATE":null,"OBJECT_TYPE":"PAYLOAD","PERIAPSIS":"546.205","SITE":"AFETR","ELEMENT_SET_NO":"999","ARG_OF_PERICENTER":"64.1282","PERIOD":"95.593","LAUNCH_DATE":"2021-05-26","REV_AT_EPOCH":"6326","TIME_SYSTEM":"UTC","MEAN_MOTION_DDOT":"0.0000000000000","OBJECT_ID":"2021-044BJ","MEAN_MOTION_DOT":"0.00007238","MEAN_ANOMALY":"295.9860","TLE_LINE1":"1 48694U 21044BJ  22196.59007660  .00007238  00000-0  50437-3 0  9997","EPHEMERIS_TYPE":"0","REF_FRAME":"TEME","MEAN_MOTION":"15.06394280","CLASSIFICATION_TYPE":"U","TLE_LINE2":"2 48694  53.0556 311.1339 0001481  64.1282 295.9860 15.06394280 63269","RCS_SIZE":"LARGE","ECCENTRICITY":"0.00014810","CENTER_NAME":"EARTH","MEAN_ELEMENT_THEORY":"SGP4","COUNTRY_CODE":"US","APOAPSIS":"548.257","RA_OF_ASC_NODE":"311.1339","GP_ID":"208170736","OBJECT_NAME":"STARLINK-2748","NORAD_CAT_ID":"48694","BSTAR":"0.00050437000000"},{"MEAN_MOTION":"15.06397644","REF_FRAME":"TEME","CLASSIFICATION_TYPE":"U","MEAN_ANOMALY":"283.3730","EPHEMERIS_TYPE":"0","TLE_LINE1":"1 48695U 21044BK  22196.74582222  .00001192  00000-0  98911-4 0  9990","TLE_LINE2":"2 48695  53.0569 310.4957 0001241  76.7398 283.3730 15.06397644 63290","RCS_SIZE":"LARGE","RA_OF_ASC_NODE":"310.4957","GP_ID":"208202034","OBJECT_NAME":"STARLINK-2616","CENTER_NAME":"EARTH","ECCENTRICITY":"0.00012410","APOAPSIS":"548.080","MEAN_ELEMENT_THEORY":"SGP4","COUNTRY_CODE":"US","NORAD_CAT_ID":"48695","BSTAR":"0.00009891100000","SEMIMAJOR_AXIS":"6925.356","EPOCH":"2022-07-15T17:53:59.039808","DECAY_DATE":null,"PERIAPSIS":"546.361","OBJECT_TYPE":"PAYLOAD","FILE":"3514839","INCLINATION":"53.0569","ARG_OF_PERICENTER":"76.7398","ELEMENT_SET_NO":"999","SITE":"AFETR","PERIOD":"95.592","MEAN_MOTION_DDOT":"0.0000000000000","TIME_SYSTEM":"UTC","MEAN_MOTION_DOT":"0.00001192","OBJECT_ID":"2021-044BK","REV_AT_EPOCH":"6329","LAUNCH_DATE":"2021-05-26"},{"TLE_LINE2":"2 48696  53.0549 315.5219 0001441  82.2154 277.8998 15.06396135 63221","RCS_SIZE":"LARGE","MEAN_ANOMALY":"277.8998","TLE_LINE1":"1 48696U 21044BL  22196.73615606  .00001053  00000-0  89565-4 0  9994","EPHEMERIS_TYPE":"0","REF_FRAME":"TEME","MEAN_MOTION":"15.06396135","CLASSIFICATION_TYPE":"U","NORAD_CAT_ID":"48696","BSTAR":"0.00008956500000","CENTER_NAME":"EARTH","ECCENTRICITY":"0.00014410","COUNTRY_CODE":"US","MEAN_ELEMENT_THEORY":"SGP4","APOAPSIS":"548.223","RA_OF_ASC_NODE":"315.5219","OBJECT_NAME":"STARLINK-2753","GP_ID":"208202284","FILE":"3514839","INCLINATION":"53.0549","DECAY_DATE":null,"PERIAPSIS":"546.227","OBJECT_TYPE":"PAYLOAD","EPOCH":"2022-07-15T17:40:03.883584","SEMIMAJOR_AXIS":"6925.360","LAUNCH_DATE":"2021-05-26","REV_AT_EPOCH":"6322","TIME_SYSTEM":"UTC","MEAN_MOTION_DDOT":"0.0000000000000","OBJECT_ID":"2021-044BL","MEAN_MOTION_DOT":"0.00001053","SITE":"AFETR","ARG_OF_PERICENTER":"82.2154","ELEMENT_SET_NO":"999","PERIOD":"95.592"},{"REF_FRAME":"TEME","MEAN_MOTION":"15.06392383","CLASSIFICATION_TYPE":"U","MEAN_ANOMALY":"281.0768","TLE_LINE1":"1 48697U 21044BM  22196.63294826 -.00000386  00000-0 -70236-5 0  9997","EPHEMERIS_TYPE":"0","TLE_LINE2":"2 48697  53.0550 315.9569 0001367  79.0374 281.0768 15.06392383 63202","RCS_SIZE":"LARGE","RA_OF_ASC_NODE":"315.9569","GP_ID":"208202535","OBJECT_NAME":"STARLINK-2715","ECCENTRICITY":"0.00013670","CENTER_NAME":"EARTH","COUNTRY_CODE":"US","MEAN_ELEMENT_THEORY":"SGP4","APOAPSIS":"548.184","NORAD_CAT_ID":"48697","BSTAR":"-0.00000702360000","EPOCH":"2022-07-15T15:11:26.729664","SEMIMAJOR_AXIS":"6925.372","DECAY_DATE":null,"OBJECT_TYPE":"PAYLOAD","PERIAPSIS":"546.290","FILE":"3514839","INCLINATION":"53.0550","SITE":"AFETR","ELEMENT_SET_NO":"999","ARG_OF_PERICENTER":"79.0374","PERIOD":"95.593","TIME_SYSTEM":"UTC","MEAN_MOTION_DDOT":"0.0000000000000","OBJECT_ID":"2021-044BM","MEAN_MOTION_DOT":"-0.00000386","LAUNCH_DATE":"2021-05-26","REV_AT_EPOCH":"6320"}];
